satname,norad_id,inclination_deg,eccentricity,mean_motion_rev_per_day,perigee_km,apogee_km,l1,l2
STARLINK-1134,45048,53.0481,0.0006129,15.22808963,493.15858388272045,501.58658353042756,1 45048U 20006E   25255.98825271  .00014702  00000+0  63332-3 0  9993,2 45048  53.0481 349.1062 0006129 344.5884  15.4924 15.22808963309891
STARLINK-1156,45054,53.0588,0.0001288,15.064069,546.2984283423066,548.0823926832545,1 45054U 20006L   25255.59114444  .00000646  00000+0  62270-4 0  9993,2 45054  53.0588   6.1389 0001288  90.7181 269.3955 15.06406900309610
STARLINK-1159,45057,53.0578,0.0001429,15.06402969,546.2128273872331,548.1920894044415,1 45057U 20006P   25256.26935932  .00001910  00000+0  14706-3 0  9999,2 45057  53.0578   3.0924 0001429  91.9926 268.1227 15.06402969309722
STARLINK-1166,45060,53.0581,8.88e-05,15.06398286,546.6018396879708,547.8317825248241,1 45060U 20006S   25256.28040755 -.00001582  00000+0 -87345-4 0  9992,2 45060  53.0581   3.0424 0000888  89.8162 270.2929 15.06398286309720
STARLINK-1169,45061,53.0562,0.0001397,15.06390012,546.2746944188493,548.2096453589165,1 45061U 20006T   25256.28779538  .00001567  00000+0  12407-3 0  9998,2 45061  53.0562   3.0091 0001397  85.4063 274.7085 15.06390012309729
STARLINK-1171,45062,53.0561,0.0002296,15.06395827,545.6342846463676,548.8144105771917,1 45062U 20006U   25256.00766176 -.00000120  00000+0  10891-4 0  9994,2 45062  53.0561   4.2609 0002296  80.7032 279.4217 15.06395827309683
STARLINK-1133,45064,53.0562,0.0001353,15.0639266,546.2970513688524,548.1710567760838,1 45064U 20006W   25256.21960861  .00003540  00000+0  25644-3 0  9995,2 45064  53.0562 343.3107 0001353  86.5536 273.5608 15.06392660309997
STARLINK-1150,45067,53.0431,0.0003919,15.91379128,295.80614840823455,301.03923589494207,1 45067U 20006Z   25256.25002315  .00144575  18846-4  44922-3 0  9999,2 45067  53.0431 293.8850 0003919 338.3400 226.3873 15.91379128  6001
STARLINK-1167,45071,53.0552,0.0001238,15.06399734,546.3550149376852,548.069731442487,1 45071U 20006AD  25255.98001312  .00002021  00000+0  15451-3 0  9991,2 45071  53.0552 344.3906 0001238  95.0580 265.0550 15.06399734309955
STARLINK-1168,45072,53.0542,0.0001062,15.064041,546.4635213749298,547.9344627396431,1 45072U 20006AE  25255.98370000  .00001593  00000+0  12577-3 0  9994,2 45072  53.0542 344.3739 0001062  90.7916 269.3194 15.06404100309954
STARLINK-1172,45074,53.0584,0.0001495,15.06389874,546.2072485945828,548.2779370928438,1 45074U 20006AG  25256.26014529  .00001472  00000+0  11772-3 0  9991,2 45074  53.0584 343.1329 0001495  93.4344 266.6816 15.06389874309994
STARLINK-1153,45080,53.053,0.0001152,15.06398849,546.417285029489,548.0128861500089,1 45080U 20006AN  25256.23804583  .00004677  00000+0  33270-3 0  9999,2 45080  53.0530 343.2349 0001152  83.4363 276.6757 15.06398849309992
STARLINK-1151,45081,53.0581,0.0001397,15.0640298,546.2349547649055,548.1698946001616,1 45081U 20006AP  25255.55982224  .00000416  00000+0  46836-4 0  9993,2 45081  53.0581 346.3518 0001397  92.5289 267.5860 15.06402980309895
STARLINK-1190,45083,53.0508,0.0007638,15.71659905,349.01051563807505,359.2947612897933,1 45083U 20006AR  25256.17949296  .00076628  00000+0  58128-3 0  9990,2 45083  53.0508 319.5741 0007638   6.4830 353.6285 15.71659905310327
STARLINK-1173,45084,53.0468,0.0010008,15.79013254,326.51845465648694,339.9519372438999,1 45084U 20006AS  25256.25002315  .00078698  00000+0  43249-3 0  9999,2 45084  53.0468 283.6358 0010008 342.3254  47.7355 15.79013254  6033
STARLINK-1179,45085,53.0411,0.000576,15.90115099,298.1127491048737,305.8082214078886,1 45085U 20006AT  25256.25002315  .00228617  30168-4  75080-3 0  9999,2 45085  53.0411 274.9552 0005760 354.0201  20.0385 15.90115099  6054
STARLINK-1185,45087,53.0555,0.0001314,15.06394198,546.3193471525974,548.1393334268241,1 45087U 20006AV  25256.19933384  .00001273  00000+0  10435-3 0  9990,2 45087  53.0555 323.4039 0001314  84.0410 276.0729 15.06394198310271
STARLINK-1183,45088,53.0559,9.36e-05,15.06401935,546.5574153783873,547.8538395182459,1 45088U 20006AW  25255.88971100  .00003029  00000+0  22213-3 0  9992,2 45088  53.0559 324.7940 0000936  50.0766 310.0305 15.06401935310229
STARLINK-1176,45090,53.0501,0.0005812,15.76614908,336.13509177481956,343.94430036633275,1 45090U 20006AY  25256.25002315  .00109579  00000+0  66762-3 0  9994,2 45090  53.0501 281.2125 0005812 323.1224 293.5310 15.76614908  5979
STARLINK-1142,45093,53.0386,0.000622,15.4894823,415.57331128636815,424.0299469409856,1 45093U 20006BB  25255.46351651  .00052170  00000+0  95111-3 0  9993,2 45093  53.0386 276.7611 0006220  26.1361 333.9959 15.48948230310860
STARLINK-1146,45094,53.0473,0.0005962,15.91057884,295.34025251066305,303.30245385099533,1 45094U 20006BC  25256.25002315  .00272991  38748-4  85223-3 0  9995,2 45094  53.0473 276.0907 0005962 344.5092 326.9219 15.91057884  6057
STARLINK-1147,45095,53.0429,0.0009806,15.88060847,301.1638306021705,314.2761333151884,1 45095U 20006BD  25256.25002315  .00140389  00000+0  49728-3 0  9996,2 45095  53.0429 278.7149 0009806 350.9748  37.8976 15.88060847  6053
STARLINK-1152,45096,53.0488,0.0004191,15.20351112,501.89607855612667,507.66534018011953,1 45096U 20006BE  25255.87127499 -.00064890  00000+0 -29556-2 0  9995,2 45096  53.0488 312.4707 0004191  31.2690 328.8554 15.20351112310396
STARLINK-1184,45098,53.0563,0.0001327,15.06394174,546.31041772361,548.1484099698455,1 45098U 20006BG  25255.90445238  .00000077  00000+0  24092-4 0  9992,2 45098  53.0563 324.7295 0001327  84.2960 275.8180 15.06394174310223
STARLINK-1193,45100,53.0557,0.0001118,15.06391683,546.4627916440713,548.0113052813067,1 45100U 20006BJ  25255.90077317  .00003456  00000+0  25081-3 0  9997,2 45100  53.0557 324.7446 0001118  91.9025 268.2092 15.06391683310223
STARLINK-1143,45179,53.0543,0.0004967,15.32544723,464.8224895537487,471.62366365384787,1 45179U 20012B   25256.25644783  .00049583  00000+0  15568-2 0  9995,2 45179  53.0543  97.0955 0004967 129.0808 231.0635 15.32544723308464
STARLINK-1201,45182,53.0382,0.0001664,16.02609623,266.08912631280873,268.3006927723045,1 45182U 20012E   25255.83730330  .00404261  83581-4  66610-3 0  9999,2 45182  53.0382  52.2366 0001664   5.9881 354.1170 16.02609623308899
STARLINK-1202,45183,53.0543,0.0001393,15.06398737,546.2507272607381,548.1801304474166,1 45183U 20012F   25256.02977862 -.00001875  00000+0 -10703-3 0  9993,2 45183  53.0543 124.1661 0001393  88.8294 271.2855 15.06398737308065
STARLINK-1216,45185,53.0535,0.0001192,15.06392988,546.4075446819124,548.0585529015443,1 45185U 20012H   25256.02241060  .00002094  00000+0  15943-3 0  9992,2 45185  53.0535 124.1978 0001192  96.7970 263.3154 15.06392988308005
STARLINK-1224,45186,53.036,0.0001175,16.05180031,259.31881713651364,260.878802551827,1 45186U 20012J   25255.21080931  .00506019  13164-3  71336-3 0  9994,2 45186  53.0360  76.5993 0001175   9.5728 350.5326 16.05180031308591
STARLINK-1225,45187,53.053,0.0001397,15.06396134,546.255933847996,548.1908795456275,1 45187U 20012K   25256.04085411  .00004599  00000+0  32747-3 0  9995,2 45187  53.0530 124.1167 0001397 102.1370 257.9776 15.06396134308056
STARLINK-1228,45188,53.0267,0.0006186,16.27221709,195.94752885449998,204.08602070465622,1 45188U 20012L   25257.00945498  .03335570  12034-4  91699-3 0  9998,2 45188  53.0267   3.8527 0006186 335.9789  24.0962 16.27221709309777
STARLINK-1230,45189,53.0536,0.0001445,15.06388582,546.245834761462,548.2472706081871,1 45189U 20012M   25255.91182898  .00000111  00000+0  26388-4 0  9990,2 45189  53.0536 124.6954 0001445  89.7975 270.3180 15.06388582305264
STARLINK-1234,45190,53.0551,0.0001379,15.06394509,546.2733792266663,548.183395000432,1 45190U 20012N   25256.26199107  .00000306  00000+0  39452-4 0  9994,2 45190  53.0551  83.1219 0001379  89.4233 270.6914 15.06394509308555
STARLINK-1237,45192,53.0438,0.0004523,16.14433912,231.71676140093405,237.698740762763,1 45192U 20012Q   25255.18850230  .00842754  44366-3  64746-3 0  9998,2 45192  53.0438  75.1521 0004523 284.0814  75.9719 16.14433912308674
STARLINK-1240,45194,53.0386,0.0002289,15.9639842,282.89561931342996,285.9457382187693,1 45194U 20012S   25256.25002315  .00366964  65409-4  86170-3 0  9993,2 45194  53.0386  72.1981 0002289  80.1824 176.7396 15.96398420  6060
STARLINK-1244,45196,53.0368,3.07e-05,16.0113813,271.06165305003833,271.46992638132724,1 45196U 20012U   25256.21596954  .00360221  67004-4  64772-3 0  9995,2 45196  53.0368  71.8971 0000307  29.2102 330.8945 16.01138130308851
STARLINK-1269,45197,53.0546,0.0001397,15.06390036,546.2746208717708,548.2095717912862,1 45197U 20012V   25256.05558330 -.00000419  00000+0 -92647-5 0  9998,2 45197  53.0546 124.0527 0001397  91.3832 268.7317 15.06390036308039
STARLINK-1154,45198,53.0546,0.0001473,15.06399516,546.1929372678787,548.2331453900542,1 45198U 20012W   25255.98001749  .00001396  00000+0  11258-3 0  9997,2 45198  53.0546 104.3892 0001473  87.6921 272.4237 15.06399516308279
STARLINK-1199,45201,53.0539,0.0001392,15.06392854,546.2694479176844,548.1974710536051,1 45201U 20012Z   25255.99107873 -.00000616  00000+0 -22460-4 0  9992,2 45201  53.0539 104.3404 0001392  88.5092 271.6056 15.06392854308339
STARLINK-1206,45204,53.0384,0.0001258,15.96231149,284.04791400035174,285.72433061792435,1 45204U 20012AC  25256.25002315  .00352350  60946-4  83543-3 0  9991,2 45204  53.0384  53.0636 0001258  86.8434  97.7707 15.96231149  6062
STARLINK-1208,45205,53.0392,0.0002835,15.91995025,294.8082856068786,298.59291852725073,1 45205U 20012AD  25256.25002315  .00343731  55882-4  10212-2 0  9990,2 45205  53.0392  54.0832 0002835 107.0876 203.8086 15.91995025  5951
STARLINK-1209,45206,53.0539,0.0001323,15.06392417,546.318572149632,548.1510255276044,1 45206U 20012AE  25255.93395770  .00000849  00000+0  75868-4 0  9992,2 45206  53.0539  84.5988 0001323  85.4259 274.6881 15.06392417307653
